
# Worst residual: 20.77 km
# MJD 60600.000000 (2024 Oct 17  0:00)
1964-040B = NORAD 00837 = Vela 2B
1 00837U 64040B   24291.49919926  .00000000  00000-0  00000-0 0 21825
2 00837 048.4590 135.3288 3866333 264.3047 355.5646 00.24026936    04

# Worst residual: 15.54 km
# MJD 60601.000000 (2024 Oct 18  0:00)
1964-040B = NORAD 00837 = Vela 2B
1 00837U 64040B   24292.49919926  .00000000  00000-0  00000-0 0 21826
2 00837 048.4336 135.3407 3871967 264.1345 082.1858 00.24041369    08

# Worst residual: 6.32 km
# MJD 60602.000000 (2024 Oct 19  0:00)
1964-040B = NORAD 00837 = Vela 2B
1 00837U 64040B   24293.49919926  .00000000  00000-0  00000-0 0 21827
2 00837 048.4205 135.2913 3875712 264.3131 168.3804 00.24005835    07

# Worst residual: 9.31 km
# MJD 60603.000000 (2024 Oct 20  0:00)
1964-040B = NORAD 00837 = Vela 2B
1 00837U 64040B   24294.49919926  .00000000  00000-0  00000-0 0 21828
2 00837 048.4269 135.2282 3876770 264.4262 254.6355 00.24011680    02

# Worst residual: 18.83 km
# MJD 60604.000000 (2024 Oct 21  0:00)
1964-040B = NORAD 00837 = Vela 2B
1 00837U 64040B   24295.49919926  .00000000  00000-0  00000-0 0 21829
2 00837 048.4482 135.1977 3867540 264.4243 341.0130 00.24044306    06

# Worst residual: 14.50 km
# MJD 60605.000000 (2024 Oct 22  0:00)
1964-040B = NORAD 00837 = Vela 2B
1 00837U 64040B   24296.49919926  .00000000  00000-0  00000-0 0 21820
2 00837 048.4480 135.1944 3876574 264.2261 067.6258 00.24028112    02

# Worst residual: 3.43 km
# MJD 60606.000000 (2024 Oct 23  0:00)
1964-040B = NORAD 00837 = Vela 2B
1 00837U 64040B   24297.49919926  .00000000  00000-0  00000-0 0 21821
2 00837 048.4550 135.1802 3881384 264.2666 154.0059 00.24007830    01

# Worst residual: 6.99 km
# MJD 60607.000000 (2024 Oct 24  0:00)
1964-040B = NORAD 00837 = Vela 2B
1 00837U 64040B   24298.49919926  .00000000  00000-0  00000-0 0 21822
2 00837 048.4572 135.1512 3878422 264.1407 240.6591 00.23987065    03

# Worst residual: 8.48 km
# MJD 60608.000000 (2024 Oct 25  0:00)
1964-040B = NORAD 00837 = Vela 2B
1 00837U 64040B   24299.49919926  .00000000  00000-0  00000-0 0 21823
2 00837 048.4594 135.1326 3882129 264.0492 327.1463 00.23970759    03

# Worst residual: 12.33 km
# MJD 60609.000000 (2024 Oct 26  0:00)
1964-040B = NORAD 00837 = Vela 2B
1 00837U 64040B   24300.49919926  .00000000  00000-0  00000-0 0 21826
2 00837 048.4584 135.1267 3877711 264.0454 053.5884 00.24018815    09

# Worst residual: 6.29 km
# MJD 60610.000000 (2024 Oct 27  0:00)
1964-040B = NORAD 00837 = Vela 2B
1 00837U 64040B   24301.49919926  .00000000  00000-0  00000-0 0 21827
2 00837 048.4465 135.0935 3890206 264.1289 139.7926 00.23990756    05

# Worst residual: 5.41 km
# MJD 60611.000000 (2024 Oct 28  0:00)
1964-040B = NORAD 00837 = Vela 2B
1 00837U 64040B   24302.49919926  .00000000  00000-0  00000-0 0 21828
2 00837 048.4468 135.0712 3895166 264.0334 226.3682 00.23993824    02

# Worst residual: 6.76 km
# MJD 60612.000000 (2024 Oct 29  0:00)
1964-040B = NORAD 00837 = Vela 2B
1 00837U 64040B   24303.49919926  .00000000  00000-0  00000-0 0 21829
2 00837 048.4533 135.0524 3900493 263.9128 312.9427 00.23972308    08

# Worst residual: 13.48 km
# MJD 60613.000000 (2024 Oct 30  0:00)
1964-040B = NORAD 00837 = Vela 2B
1 00837U 64040B   24304.49919926  .00000000  00000-0  00000-0 0 21820
2 00837 048.4678 135.0729 3894477 263.8347 039.4119 00.24034410    04

# Worst residual: 4.33 km
# MJD 60614.000000 (2024 Oct 31  0:00)
1964-040B = NORAD 00837 = Vela 2B
1 00837U 64040B   24305.49919926  .00000000  00000-0  00000-0 0 21821
2 00837 048.4490 135.0438 3900398 263.8640 125.8477 00.24015913    03

# Worst residual: 1.48 km
# MJD 60615.000000 (2024 Nov  1  0:00)
1964-040B = NORAD 00837 = Vela 2B
1 00837U 64040B   24306.49919926  .00000000  00000-0  00000-0 0 21822
2 00837 048.4481 135.0133 3901847 263.8895 212.2637 00.24008970    01

# Worst residual: 12.53 km
# MJD 60616.000000 (2024 Nov  2  0:00)
1964-040B = NORAD 00837 = Vela 2B
1 00837U 64040B   24307.49919926  .00000000  00000-0  00000-0 0 21823
2 00837 048.4536 134.9898 3903664 263.9490 298.6405 00.24028767    06

# Worst residual: 21.81 km
# MJD 60617.000000 (2024 Nov  3  0:00)
1964-040B = NORAD 00837 = Vela 2B
1 00837U 64040B   24308.49919926  .00000000  00000-0  00000-0 0 21824
2 00837 048.4720 134.9961 3900477 263.7332 025.2573 00.24038324    04

# Worst residual: 5.18 km
# MJD 60618.000000 (2024 Nov  4  0:00)
1964-040B = NORAD 00837 = Vela 2B
1 00837U 64040B   24309.49919926  .00000000  00000-0  00000-0 0 21825
2 00837 048.4636 134.9827 3912596 263.7004 111.6786 00.24013200    04

# Worst residual: 1.09 km
# MJD 60619.000000 (2024 Nov  5  0:00)
1964-040B = NORAD 00837 = Vela 2B
1 00837U 64040B   24310.49919926  .00000000  00000-0  00000-0 0 21827
2 00837 048.4698 134.9788 3915358 263.7059 198.0899 00.24006917    08

# Worst residual: 5.82 km
# MJD 60620.000000 (2024 Nov  6  0:00)
1964-040B = NORAD 00837 = Vela 2B
1 00837U 64040B   24311.49919926  .00000000  00000-0  00000-0 0 21828
2 00837 048.4724 134.9614 3918028 263.6826 284.5661 00.24008822    09

# Worst residual: 13.05 km
# MJD 60621.000000 (2024 Nov  7  0:00)
1964-040B = NORAD 00837 = Vela 2B
1 00837U 64040B   24312.49919926  .00000000  00000-0  00000-0 0 21829
2 00837 048.4815 134.9432 3910802 263.5971 011.0626 00.24044153    01

# Worst residual: 9.92 km
# MJD 60622.000000 (2024 Nov  8  0:00)
1964-040B = NORAD 00837 = Vela 2B
1 00837U 64040B   24313.49919926  .00000000  00000-0  00000-0 0 21820
2 00837 048.4753 134.9262 3923382 263.5872 097.4652 00.24004485    01

# Worst residual: 2.06 km
# MJD 60623.000000 (2024 Nov  9  0:00)
1964-040B = NORAD 00837 = Vela 2B
1 00837U 64040B   24314.49919926  .00000000  00000-0  00000-0 0 21821
2 00837 048.4772 134.9085 3925581 263.6274 183.7881 00.23989937    01

# Worst residual: 8.37 km
# MJD 60624.000000 (2024 Nov 10  0:00)
1964-040B = NORAD 00837 = Vela 2B
1 00837U 64040B   24315.49919926  .00000000  00000-0  00000-0 0 21822
2 00837 048.4784 134.8967 3932235 263.5101 270.3993 00.23983243    05

# Worst residual: 19.25 km
# MJD 60625.000000 (2024 Nov 11  0:00)
1964-040B = NORAD 00837 = Vela 2B
1 00837U 64040B   24316.49919926  .00000000  00000-0  00000-0 0 21823
2 00837 048.4944 134.8835 3932052 263.4864 356.8062 00.24004278    09

# Worst residual: 12.66 km
# MJD 60626.000000 (2024 Nov 12  0:00)
1964-040B = NORAD 00837 = Vela 2B
1 00837U 64040B   24317.49919926  .00000000  00000-0  00000-0 0 21824
2 00837 048.4818 134.8865 3935070 263.3726 083.3584 00.24027636    05

# Worst residual: 6.27 km
# MJD 60627.000000 (2024 Nov 13  0:00)
1964-040B = NORAD 00837 = Vela 2B
1 00837U 64040B   24318.49919926  .00000000  00000-0  00000-0 0 21825
2 00837 048.4805 134.8616 3941099 263.5193 169.5186 00.23998777    00

# Worst residual: 8.36 km
# MJD 60628.000000 (2024 Nov 14  0:00)
1964-040B = NORAD 00837 = Vela 2B
1 00837U 64040B   24319.49919926  .00000000  00000-0  00000-0 0 21826
2 00837 048.4865 134.8122 3946705 263.6614 255.7245 00.24019560    05
